{"type": "FeatureCollection", "features": [ {"type": "Feature", "properties": {"norad_id": 37834, "name": "INTELSAT 18 (IS-18)", "group": "intelsat", "lat": 0.003304467941087143, "lon": -41.167245833938324, "alt_km": 35780.923187934364, "timestamp": "2025-12-12T03:50:52.084486+00:00", "meta": {"OBJECT_NAME": "INTELSAT 18 (IS-18)", "OBJECT_ID": "2011-056A", "EPOCH": "2025-12-11T14:22:02.643744", "MEAN_MOTION": 1.00271361, "ECCENTRICITY": 0.00019177, "INCLINATION": 0.0144, "RA_OF_ASC_NODE": 296.0641, "ARG_OF_PERICENTER": 333.0333, "MEAN_ANOMALY": 206.9647, "EPHEMERIS_TYPE": 0, "CLASSIFICATION_TYPE": "U", "NORAD_CAT_ID": 37834, "ELEMENT_SET_NO": 999, "REV_AT_EPOCH": 5193, "BSTAR": 0, "MEAN_MOTION_DOT": 6e-07, "MEAN_MOTION_DDOT": 0}, "tle": {"line1": "1 37834U 11056A   25345.59864171  .00000060  00000+0  00000+0 0  9992", "line2": "2 37834   0.0144 296.0641 0001917 333.0333 206.9647  1.00271361 51933"}}, "geometry": {"type": "Point", "coordinates": [-41.167245833938324, 0.003304467941087143]}}, {"type": "Feature", "properties": {"norad_id": 38098, "name": "INTELSAT 22 (IS-22)", "group": "intelsat", "lat": -0.012948319771059258, "lon": -149.07316743354812, "alt_km": 35782.31186905559, "timestamp": "2025-12-12T03:50:52.084498+00:00", "meta": {"OBJECT_NAME": "INTELSAT 22 (IS-22)", "OBJECT_ID": "2012-011A", "EPOCH": "2025-12-11T13:51:13.097088", "MEAN_MOTION": 1.00271195, "ECCENTRICITY": 0.00017306, "INCLINATION": 0.002, "RA_OF_ASC_NODE": 0.2192, "ARG_OF_PERICENTER": 268.3205, "MEAN_ANOMALY": 91.923, "EPHEMERIS_TYPE": 0, "CLASSIFICATION_TYPE": "U", "NORAD_CAT_ID": 38098, "ELEMENT_SET_NO": 999, "REV_AT_EPOCH": 530, "BSTAR": 0, "MEAN_MOTION_DOT": -5.1e-07, "MEAN_MOTION_DDOT": 0}, "tle": {"line1": "1 38098U 12011A   25345.57723492 -.00000051  00000+0  00000+0 0  9996", "line2": "2 38098   0.0020   0.2192 0001730 268.3205  91.9230  1.00271195  5301"}}, "geometry": {"type": "Point", "coordinates": [-149.07316743354812, -0.012948319771059258]}}, {"type": "Feature", "properties": {"norad_id": 38356, "name": "INTELSAT 19 (IS-19)", "group": "intelsat", "lat": -0.015987321358296832, "lon": -55.145019257008876, "alt_km": 35774.13256152669, "timestamp": "2025-12-12T03:50:52.084526+00:00", "meta": {"OBJECT_NAME": "INTELSAT 19 (IS-19)", "OBJECT_ID": "2012-030A", "EPOCH": "2025-12-11T14:18:03.027168", "MEAN_MOTION": 1.00272216, "ECCENTRICITY": 0.00034477, "INCLINATION": 0.009, "RA_OF_ASC_NODE": 344.6079, "ARG_OF_PERICENTER": 284.4617, "MEAN_ANOMALY": 192.0056, "EPHEMERIS_TYPE": 0, "CLASSIFICATION_TYPE": "U", "NORAD_CAT_ID": 38356, "ELEMENT_SET_NO": 999, "REV_AT_EPOCH": 4857, "BSTAR": 0, "MEAN_MOTION_DOT": -4.9e-07, "MEAN_MOTION_DDOT": 0}, "tle": {"line1": "1 38356U 12030A   25345.59586837 -.00000049  00000+0  00000+0 0  9993", "line2": "2 38356   0.0090 344.6079 0003447 284.4617 192.0056  1.00272216 48577"}}, "geometry": {"type": "Point", "coordinates": [-55.145019257008876, -0.015987321358296832]}}, {"type": "Feature", "properties": {"norad_id": 38740, "name": "INTELSAT 20 (IS-20)", "group": "intelsat", "lat": -0.001934808033338827, "lon": -152.65538076940103, "alt_km": 35775.350536967206, "timestamp": "2025-12-12T03:50:52.084539+00:00", "meta": {"OBJECT_NAME": "INTELSAT 20 (IS-20)", "OBJECT_ID": "2012-043A", "EPOCH": "2025-12-11T02:03:38.556288", "MEAN_MOTION": 1.00271347, "ECCENTRICITY": 0.00027974, "INCLINATION": 0.0063, "RA_OF_ASC_NODE": 85.143, "ARG_OF_PERICENTER": 99.0256, "MEAN_ANOMALY": 355.3044, "EPHEMERIS_TYPE": 0, "CLASSIFICATION_TYPE": "U", "NORAD_CAT_ID": 38740, "ELEMENT_SET_NO": 999, "REV_AT_EPOCH": 4886, "BSTAR": 0, "MEAN_MOTION_DOT": -1.9e-07, "MEAN_MOTION_DDOT": 0}, "tle": {"line1": "1 38740U 12043A   25345.08586292 -.00000019  00000+0  00000+0 0  9990", "line2": "2 38740   0.0063  85.1430 0002797  99.0256 355.3044  1.00271347 48865"}}, "geometry": {"type": "Point", "coordinates": [-152.65538076940103, -0.001934808033338827]}}, {"type": "Feature", "properties": {"norad_id": 38749, "name": "INTELSAT 21 (IS-21)", "group": "intelsat", "lat": 0.02079623973857824, "lon": 80.80923587604316, "alt_km": 35795.44587680722, "timestamp": "2025-12-12T03:50:52.084552+00:00", "meta": {"OBJECT_NAME": "INTELSAT 21 (IS-21)", "OBJECT_ID": "2012-045A", "EPOCH": "2025-12-11T04:40:28.057152", "MEAN_MOTION": 1.00269962, "ECCENTRICITY": 0.00020675, "INCLINATION": 0.0204, "RA_OF_ASC_NODE": 58.4062, "ARG_OF_PERICENTER": 200.7387, "MEAN_ANOMALY": 193.1251, "EPHEMERIS_TYPE": 0, "CLASSIFICATION_TYPE": "U", "NORAD_CAT_ID": 38749, "ELEMENT_SET_NO": 999, "REV_AT_EPOCH": 4864, "BSTAR": 0, "MEAN_MOTION_DOT": -2.79e-06, "MEAN_MOTION_DDOT": 0}, "tle": {"line1": "1 38749U 12045A   25345.19476918 -.00000279  00000+0  00000+0 0  9994", "line2": "2 38749   0.0204  58.4062 0002067 200.7387 193.1251  1.00269962 48645"}}, "geometry": {"type": "Point", "coordinates": [80.80923587604316, 0.02079623973857824]}}, {"type": "Feature", "properties": {"norad_id": 38867, "name": "INTELSAT 23 (IS-23)", "group": "intelsat", "lat": 0.012839061686852867, "lon": 85.66293023685904, "alt_km": 35792.66389696718, "timestamp": "2025-12-12T03:50:52.084564+00:00", "meta": {"OBJECT_NAME": "INTELSAT 23 (IS-23)", "OBJECT_ID": "2012-057A", "EPOCH": "2025-12-09T20:10:10.491744", "MEAN_MOTION": 1.00260311, "ECCENTRICITY": 0.00020064, "INCLINATION": 0.0432, "RA_OF_ASC_NODE": 94.7791, "ARG_OF_PERICENTER": 102.2636, "MEAN_ANOMALY": 131.2856, "EPHEMERIS_TYPE": 0, "CLASSIFICATION_TYPE": "U", "NORAD_CAT_ID": 38867, "ELEMENT_SET_NO": 999, "REV_AT_EPOCH": 4805, "BSTAR": 0, "MEAN_MOTION_DOT": -2.82e-06, "MEAN_MOTION_DDOT": 0}, "tle": {"line1": "1 38867U 12057A   25343.84039921 -.00000282  00000+0  00000+0 0  9991", "line2": "2 38867   0.0432  94.7791 0002006 102.2636 131.2856  1.00260311 48055"}}, "geometry": {"type": "Point", "coordinates": [85.66293023685904, 0.012839061686852867]}}, {"type": "Feature", "properties": {"norad_id": 39360, "name": "FM-6", "group": "intelsat", "lat": 0.003014534719057078, "lon": 22.638035694491105, "alt_km": 35797.200879573145, "timestamp": "2025-12-12T03:50:52.084576+00:00", "meta": {"OBJECT_NAME": "FM-6", "OBJECT_ID": "2013-058A", "EPOCH": "2025-12-10T23:15:42.718752", "MEAN_MOTION": 1.00269361, "ECCENTRICITY": 0.00028563, "INCLINATION": 0.0087, "RA_OF_ASC_NODE": 66.7059, "ARG_OF_PERICENTER": 106.8032, "MEAN_ANOMALY": 139.1966, "EPHEMERIS_TYPE": 0, "CLASSIFICATION_TYPE": "U", "NORAD_CAT_ID": 39360, "ELEMENT_SET_NO": 999, "REV_AT_EPOCH": 4418, "BSTAR": 0, "MEAN_MOTION_DOT": -1.1e-07, "MEAN_MOTION_DDOT": 0}, "tle": {"line1": "1 39360U 13058A   25344.96924443 -.00000011  00000+0  00000+0 0  9998", "line2": "2 39360   0.0087  66.7059 0002856 106.8032 139.1966  1.00269361 44182"}}, "geometry": {"type": "Point", "coordinates": [22.638035694491105, 0.003014534719057078]}}, {"type": "Feature", "properties": {"norad_id": 40271, "name": "INTELSAT 30 (IS-30)", "group": "intelsat", "lat": 0.017155325786163002, "lon": 43.73553746584871, "alt_km": 35782.29844534342, "timestamp": "2025-12-12T03:50:52.084588+00:00", "meta": {"OBJECT_NAME": "INTELSAT 30 (IS-30)", "OBJECT_ID": "2014-062A", "EPOCH": "2025-12-10T19:56:16.820736", "MEAN_MOTION": 1.00269622, "ECCENTRICITY": 0.0001301, "INCLINATION": 0.0174, "RA_OF_ASC_NODE": 29.1064, "ARG_OF_PERICENTER": 50.969, "MEAN_ANOMALY": 203.7271, "EPHEMERIS_TYPE": 0, "CLASSIFICATION_TYPE": "U", "NORAD_CAT_ID": 40271, "ELEMENT_SET_NO": 999, "REV_AT_EPOCH": 489, "BSTAR": 0, "MEAN_MOTION_DOT": -1.46e-06, "MEAN_MOTION_DDOT": 0}, "tle": {"line1": "1 40271U 14062A   25344.83075024 -.00000146  00000+0  00000+0 0  9994", "line2": "2 40271   0.0174  29.1064 0001301  50.9690 203.7271  1.00269622  4895"}}, "geometry": {"type": "Point", "coordinates": [43.73553746584871, 0.017155325786163002]}}, {"type": "Feature", "properties": {"norad_id": 40333, "name": "DIRECTV 14", "group": "intelsat", "lat": 0.03201418312537202, "lon": 39.599223887414595, "alt_km": 35788.26004837939, "timestamp": "2025-12-12T03:50:52.084599+00:00", "meta": {"OBJECT_NAME": "DIRECTV 14", "OBJECT_ID": "2014-078B", "EPOCH": "2025-12-10T23:20:34.751616", "MEAN_MOTION": 1.00270629, "ECCENTRICITY": 5.243e-05, "INCLINATION": 0.0172, "RA_OF_ASC_NODE": 324.7094, "ARG_OF_PERICENTER": 220.9679, "MEAN_ANOMALY": 145.1924, "EPHEMERIS_TYPE": 0, "CLASSIFICATION_TYPE": "U", "NORAD_CAT_ID": 40333, "ELEMENT_SET_NO": 999, "REV_AT_EPOCH": 4015, "BSTAR": 0, "MEAN_MOTION_DOT": -1.2e-06, "MEAN_MOTION_DDOT": 0}, "tle": {"line1": "1 40333U 14078B   25344.97262444 -.00000120  00000+0  00000+0 0  9991", "line2": "2 40333   0.0172 324.7094 0000524 220.9679 145.1924  1.00270629 40153"}}, "geometry": {"type": "Point", "coordinates": [39.599223887414595, 0.03201418312537202]}}, {"type": "Feature", "properties": {"norad_id": 40663, "name": "DIRECTV 15", "group": "intelsat", "lat": -0.013175892035503444, "lon": 35.96244100675361, "alt_km": 35786.61988151276, "timestamp": "2025-12-12T03:50:52.084611+00:00", "meta": {"OBJECT_NAME": "DIRECTV 15", "OBJECT_ID": "2015-026A", "EPOCH": "2025-12-10T23:19:34.847904", "MEAN_MOTION": 1.00272611, "ECCENTRICITY": 2.214e-05, "INCLINATION": 0.0411, "RA_OF_ASC_NODE": 85.413, "ARG_OF_PERICENTER": 166.5843, "MEAN_ANOMALY": 74.9718, "EPHEMERIS_TYPE": 0, "CLASSIFICATION_TYPE": "U", "NORAD_CAT_ID": 40663, "ELEMENT_SET_NO": 999, "REV_AT_EPOCH": 3857, "BSTAR": 0, "MEAN_MOTION_DOT": -9.7e-07, "MEAN_MOTION_DDOT": 0}, "tle": {"line1": "1 40663U 15026A   25344.97193111 -.00000097  00000+0  00000+0 0  9998", "line2": "2 40663   0.0411  85.4130 0000221 166.5843  74.9718  1.00272611 38575"}}, "geometry": {"type": "Point", "coordinates": [35.96244100675361, -0.013175892035503444]}}]}